NORAD_CAT_ID,OBJECT_NAME,OBJECT_TYPE,EPOCH,MEAN_MOTION,ECCENTRICITY,INCLINATION,RA_OF_ASC_NODE,ARG_OF_PERICENTER,MEAN_ANOMALY,BSTAR,MEAN_MOTION_DOT,MEAN_MOTION_DDOT,TLE_LINE0,TLE_LINE1,TLE_LINE2,SEMIMAJOR_AXIS,PERIOD,APOGEE,PERIGEE,DECAYED
53966.0,STARLINK-4635,PAYLOAD,2024-05-14 12:25:28,15.0887864,0.0001314,53.2158,325.7797,92.0837,268.0305,0.00093022,0.00014563,0.0,0 STARLINK-4635,1 53966U 22125C   24135.51769307  .00014563  00000-0  93022-3 0  9992,2 53966  53.2158 325.7797 0001314  92.0837 268.0305 15.08878640 89056,6917.762,95.435,540.536,538.718,0.0
53966.0,STARLINK-4635,PAYLOAD,2024-05-14 18:47:00,15.08889134,0.0001356,53.2163,324.5904,89.0904,271.0244,0.0010561,0.00016582,0.0,0 STARLINK-4635,1 53966U 22125C   24135.78264530  .00016582  00000-0  10561-2 0  9998,2 53966  53.2163 324.5904 0001356  89.0904 271.0244 15.08889134 89164,6917.73,95.434,540.533,538.657,0.0
53966.0,STARLINK-4635,PAYLOAD,2024-05-15 12:16:12,15.08884612,0.0001867,53.2119,321.3169,97.5954,262.5251,-0.00017233,-3.033e-05,0.0,0 STARLINK-4635,1 53966U 22125C   24136.51125592 -.00003033  00000-0 -17233-3 0  9997,2 53966  53.2119 321.3169 0001867  97.5954 262.5251 15.08884612 89270,6917.744,95.435,540.901,538.317,0.0
53966.0,STARLINK-4635,PAYLOAD,2024-05-15 18:37:46,15.08826866,0.0001064,53.2154,320.1272,111.598,248.5126,-0.0017109,-0.00027403,0.0,0 STARLINK-4635,1 53966U 22125C   24136.77622929 -.00027403  00000-0 -17109-2 0  9999,2 53966  53.2154 320.1272 0001064 111.5980 248.5126 15.08826866 89313,6917.921,95.438,540.522,539.049,0.0
53966.0,STARLINK-4635,PAYLOAD,2024-05-16 12:07:01,15.08866054,3.74e-05,53.2164,316.8575,237.8534,122.2422,0.0022302,0.0003541,0.0,0 STARLINK-4635,1 53966U 22125C   24137.50487339  .00035410  00000-0  22302-2 0  9991,2 53966  53.2164 316.8575 0000374 237.8534 122.2422 15.08866054 89424,6917.801,95.436,539.924,539.407,0.0
53966.0,STARLINK-4635,PAYLOAD,2024-05-16 18:28:33,15.08869318,7.79e-05,53.2153,315.6677,65.2868,294.8205,0.0018103,0.00028664,0.0,0 STARLINK-4635,1 53966U 22125C   24137.76983624  .00028664  00000-0  18103-2 0  9994,2 53966  53.2153 315.6677 0000779  65.2868 294.8205 15.08869318 89469,6917.791,95.436,540.195,539.117,0.0
53966.0,STARLINK-4635,PAYLOAD,2024-05-17 11:57:48,15.08845959,9.25e-05,53.2167,312.397,338.8138,21.2816,0.0016039,0.00025334,0.0,0 STARLINK-4635,1 53966U 22125C   24138.49848192  .00025334  00000-0  16039-2 0  9992,2 53966  53.2167 312.3970 0000925 338.8138  21.2816 15.08845959 89573,6917.862,95.437,540.367,539.087,0.0
53966.0,STARLINK-4635,PAYLOAD,2024-05-17 18:19:21,15.08828319,0.0001078,53.2169,311.2081,93.6996,266.412,0.0014541,0.00022922,0.0,0 STARLINK-4635,1 53966U 22125C   24138.76344409  .00022922  00000-0  14541-2 0  9990,2 53966  53.2169 311.2081 0001078  93.6996 266.4120 15.08828319 89611,6917.916,95.438,540.527,539.035,0.0
53966.0,STARLINK-4635,PAYLOAD,2024-05-18 14:59:22,15.0885396,0.0001511,53.2186,307.3429,96.2421,263.8744,0.00077651,0.00012096,0.0,0 STARLINK-4635,1 53966U 22125C   24139.62456094  .00012096  00000-0  77651-3 0  9993,2 53966  53.2186 307.3429 0001511  96.2421 263.8744 15.08853960 89675,6917.838,95.437,540.748,538.657,0.0
53966.0,STARLINK-4635,PAYLOAD,2024-05-18 18:10:08,15.08875688,0.0001135,53.2158,306.7494,79.9867,280.1253,0.0013216,0.00020828,0.0,0 STARLINK-4635,1 53966U 22125C   24139.75703789  .00020828  00000-0  13216-2 0  9991,2 53966  53.2158 306.7494 0001135  79.9867 280.1253 15.08875688 89693,6917.771,95.435,540.421,538.851,0.0
53966.0,STARLINK-4635,PAYLOAD,2024-05-19 03:42:26,15.08851845,0.0001105,53.2152,304.9632,67.9345,292.1764,-0.00014779,-2.64e-05,0.0,0 STARLINK-4635,1 53966U 22125C   24140.15447822 -.00002640  00000-0 -14779-3 0  9990,2 53966  53.2152 304.9632 0001105  67.9345 292.1764 15.08851845 89820,6917.844,95.437,540.474,538.945,0.0
53966.0,STARLINK-4635,PAYLOAD,2024-05-19 19:36:19,15.08831791,0.000125,53.2169,301.9905,101.8047,258.3085,0.00043559,6.65e-05,0.0,0 STARLINK-4635,1 53966U 22125C   24140.81688943  .00006650  00000-0  43559-3 0  9995,2 53966  53.2169 301.9905 0001250 101.8047 258.3085 15.08831791 89925,6917.905,95.438,540.635,538.906,0.0
53966.0,STARLINK-4635,PAYLOAD,2024-05-20 14:40:57,15.08852285,0.0001265,53.2162,298.4229,113.3547,246.7578,0.0010987,0.00017247,0.0,0 STARLINK-4635,1 53966U 22125C   24141.61177109  .00017247  00000-0  10987-2 0  9993,2 53966  53.2162 298.4229 0001265 113.3547 246.7578 15.08852285 89970,6917.843,95.437,540.583,538.833,0.0
53966.0,STARLINK-4635,PAYLOAD,2024-05-20 19:27:06,15.08870958,0.0001205,53.2163,297.5312,109.064,251.0483,0.0016171,0.00025564,0.0,0 STARLINK-4635,1 53966U 22125C   24141.81048683  .00025564  00000-0  16171-2 0  9991,2 53966  53.2163 297.5312 0001205 109.0640 251.0483 15.08870958 90078,6917.786,95.436,540.484,538.817,0.0
53966.0,STARLINK-4635,PAYLOAD,2024-05-21 09:45:34,15.0885589,0.000154,53.2164,294.8544,99.2982,260.8184,0.0010553,0.00016554,0.0,0 STARLINK-4635,1 53966U 22125C   24142.40664870  .00016554  00000-0  10553-2 0  9996,2 53966  53.2164 294.8544 0001540  99.2982 260.8184 15.08855890 90161,6917.832,95.437,540.762,538.631,0.0
53966.0,STARLINK-4635,PAYLOAD,2024-05-21 14:31:43,15.08843136,7.92e-05,53.2164,293.9625,66.6711,293.4364,0.0010985,0.00017239,0.0,0 STARLINK-4635,1 53966U 22125C   24142.60537016  .00017239  00000-0  10985-2 0  9999,2 53966  53.2164 293.9625 0000792  66.6711 293.4364 15.08843136 90125,6917.871,95.437,540.284,539.188,0.0
53966.0,STARLINK-4635,PAYLOAD,2024-05-21 17:42:30,15.08851858,0.000102,53.2165,293.3668,91.2902,268.8207,0.00057264,8.84e-05,0.0,0 STARLINK-4635,1 53966U 22125C   24142.73784800  .00008840  00000-0  57264-3 0  9998,2 53966  53.2165 293.3668 0001020  91.2902 268.8207 15.08851858 90210,6917.844,95.437,540.415,539.004,0.0
53966.0,STARLINK-4635,PAYLOAD,2024-05-22 09:36:21,15.08846241,0.0001138,53.2171,290.3937,115.7443,244.3667,0.00057874,8.936e-05,0.0,0 STARLINK-4635,1 53966U 22125C   24143.40024906  .00008936  00000-0  57874-3 0  9990,2 53966  53.2171 290.3937 0001138 115.7443 244.3667 15.08846241 90315,6917.861,95.437,540.514,538.939,0.0
53966.0,STARLINK-4635,PAYLOAD,2024-05-23 01:30:12,15.08852377,0.0001434,53.2167,287.4219,65.265,294.8491,0.00050839,7.815e-05,0.0,0 STARLINK-4635,1 53966U 22125C   24144.06264829  .00007815  00000-0  50839-3 0  9992,2 53966  53.2167 287.4219 0001434  65.2650 294.8491 15.08852377 90411,6917.843,95.437,540.7,538.716,0.0
53966.0,STARLINK-4635,PAYLOAD,2024-05-23 14:13:18,15.088321,0.0001654,53.2163,285.0394,101.3553,258.7625,-3.3574e-05,-8.22e-06,0.0,0 STARLINK-4635,1 53966U 22125C   24144.59257133 -.00000822  00000-0 -33574-4 0  9991,2 53966  53.2163 285.0394 0001654 101.3553 258.7625 15.08832100 90424,6917.905,95.438,540.914,538.625,0.0
53966.0,STARLINK-4635,PAYLOAD,2024-05-23 18:59:27,15.08839365,0.0002014,53.2175,284.1459,85.873,274.2492,9.659e-05,1.249e-05,0.0,0 STARLINK-4635,1 53966U 22125C   24144.79129308  .00001249  00000-0  96590-4 0  9994,2 53966  53.2175 284.1459 0002014  85.8730 274.2492 15.08839365 90529,6917.882,95.438,541.141,538.354,0.0
53966.0,STARLINK-4635,PAYLOAD,2024-05-24 14:04:05,15.08849876,0.0001447,53.2172,280.578,98.8221,261.2935,0.00045718,6.997e-05,0.0,0 STARLINK-4635,1 53966U 22125C   24145.58616936  .00006997  00000-0  45718-3 0  9990,2 53966  53.2172 280.5780 0001447  98.8221 261.2935 15.08849876 90572,6917.85,95.437,540.716,538.714,0.0
53966.0,STARLINK-4635,PAYLOAD,2024-05-24 15:39:27,15.08854973,0.000141,53.2172,280.2802,105.4658,254.649,0.00047526,7.287e-05,0.0,0 STARLINK-4635,1 53966U 22125C   24145.65240546  .00007287  00000-0  47526-3 0  9990,2 53966  53.2172 280.2802 0001410 105.4658 254.6490 15.08854973 90658,6917.835,95.437,540.675,538.724,0.0
53966.0,STARLINK-4635,PAYLOAD,2024-05-25 12:19:29,15.08832993,0.0001234,53.2164,276.4092,100.0792,260.0339,6.9719e-06,-1.77e-06,0.0,0 STARLINK-4635,1 53966U 22125C   24146.51353487 -.00000177  00000-0  69719-5 0  9997,2 53966  53.2164 276.4092 0001234 100.0792 260.0339 15.08832993 90786,6917.902,95.438,540.62,538.913,0.0
53966.0,STARLINK-4635,PAYLOAD,2024-05-25 15:30:15,15.08831138,0.0001162,53.216,275.8202,63.0941,297.017,-4.6294e-05,-1.024e-05,0.0,0 STARLINK-4635,1 53966U 22125C   24146.64601813 -.00001024  00000-0 -46294-4 0  9995,2 53966  53.2160 275.8202 0001162  63.0941 297.0170 15.08831138 90730,6917.907,95.438,540.576,538.969,0.0
53966.0,STARLINK-4635,PAYLOAD,2024-05-26 01:02:21,15.09327843,0.0003676,53.2169,274.0505,275.354,84.7033,0.011825,0.00195789,0.0,0 STARLINK-4635,1 53966U 22125C   24147.04330102  .00195789  00000-0  11825-1 0  9999,2 53966  53.2169 274.0505 0003676 275.3540  84.7033 15.09327843 90868,6916.39,95.407,540.797,535.712,0.0
53966.0,STARLINK-4635,PAYLOAD,2024-05-26 14:00:01,15.08861481,0.0001435,53.2174,271.6151,82.1215,332.1883,-0.0031652,-0.0005034,0.0,0 STARLINK-4635,1 53966U 22125C   24147.58334491 -.00050340  00000-0 -31652-2 0  9999,2 53966  53.2174 271.6151 0001435  82.1215 332.1883 15.08861481 90940,6917.815,95.436,540.672,538.687,0.0
53966.0,STARLINK-4635,PAYLOAD,2024-05-26 15:21:02,15.08850627,0.0001279,53.2175,271.3635,79.9194,280.1942,0.00052494,8.079e-05,0.0,0 STARLINK-4635,1 53966U 22125C   24147.63961495  .00008079  00000-0  52494-3 0  9993,2 53966  53.2175 271.3635 0001279  79.9194 280.1942 15.08850627 90950,6917.848,95.437,540.598,538.828,0.0
53966.0,STARLINK-4635,PAYLOAD,2024-05-27 12:01:03,15.08841644,0.0001359,53.2184,267.4978,98.8693,261.2453,0.0002193,3.204e-05,0.0,0 STARLINK-4635,1 53966U 22125C   24148.50073760  .00003204  00000-0  21930-3 0  9995,2 53966  53.2184 267.4978 0001359  98.8693 261.2453 15.08841644 91080,6917.875,95.437,540.681,538.8,0.0
53966.0,STARLINK-4635,PAYLOAD,2024-05-27 15:11:50,15.08842569,0.0001368,53.2181,266.9039,93.642,266.4729,0.00020475,2.972e-05,0.0,0 STARLINK-4635,1 53966U 22125C   24148.63321801  .00002972  00000-0  20475-3 0  9995,2 53966  53.2181 266.9039 0001368  93.6420 266.4729 15.08842569 91035,6917.873,95.437,540.684,538.791,0.0
